[{"OBJECT_NAME":"STARLINK-36388","OBJECT_ID":"2026-040Z","EPOCH":"2026-03-05T23:53:23.495712","MEAN_MOTION":16.13543191,"ECCENTRICITY":0.00019927,"INCLINATION":97.2852,"RA_OF_ASC_NODE":12.801,"ARG_OF_PERICENTER":93.7819,"MEAN_ANOMALY":266.3694,"EPHEMERIS_TYPE":0,"CLASSIFICATION_TYPE":"U","NORAD_CAT_ID":68037,"ELEMENT_SET_NO":999,"REV_AT_EPOCH":74,"BSTAR":6.8770653e-5,"MEAN_MOTION_DOT":0.00080192,"MEAN_MOTION_DDOT":5.477565e-6},{"OBJECT_NAME":"STARLINK-36895","OBJECT_ID":"2026-040AA","EPOCH":"2026-03-05T23:54:05.148288","MEAN_MOTION":16.13292975,"ECCENTRICITY":0.0001093,"INCLINATION":97.2856,"RA_OF_ASC_NODE":12.8005,"ARG_OF_PERICENTER":90.3352,"MEAN_ANOMALY":269.8058,"EPHEMERIS_TYPE":0,"CLASSIFICATION_TYPE":"U","NORAD_CAT_ID":68038,"ELEMENT_SET_NO":999,"REV_AT_EPOCH":74,"BSTAR":2.1065785e-5,"MEAN_MOTION_DOT":0.0002363,"MEAN_MOTION_DDOT":2.603137e-6},{"OBJECT_NAME":"STARLINK-36373","OBJECT_ID":"2026-040AB","EPOCH":"2026-03-05T23:54:19.499328","MEAN_MOTION":16.13161868,"ECCENTRICITY":0.00011117,"INCLINATION":97.2852,"RA_OF_ASC_NODE":12.8002,"ARG_OF_PERICENTER":99.9349,"MEAN_ANOMALY":260.2062,"EPHEMERIS_TYPE":0,"CLASSIFICATION_TYPE":"U","NORAD_CAT_ID":68039,"ELEMENT_SET_NO":999,"REV_AT_EPOCH":74,"BSTAR":-4.441761e-6,"MEAN_MOTION_DOT":-5.826e-5,"MEAN_MOTION_DDOT":2.33366e-6},{"OBJECT_NAME":"STARLINK-36711","OBJECT_ID":"2026-041A","EPOCH":"2026-03-05T23:32:04.752384","MEAN_MOTION":16.02223826,"ECCENTRICITY":4.854e-5,"INCLINATION":53.161,"RA_OF_ASC_NODE":81.3107,"ARG_OF_PERICENTER":3.2794,"MEAN_ANOMALY":356.8241,"EPHEMERIS_TYPE":0,"CLASSIFICATION_TYPE":"U","NORAD_CAT_ID":68040,"ELEMENT_SET_NO":999,"REV_AT_EPOCH":62,"BSTAR":-0.00054666332,"MEAN_MOTION_DOT":-0.00330818,"MEAN_MOTION_DDOT":5.0907035e-5},{"OBJECT_NAME":"STARLINK-36825","OBJECT_ID":"2026-041B","EPOCH":"2026-03-06T01:01:31.179936","MEAN_MOTION":16.0230802,"ECCENTRICITY":0.00047138,"INCLINATION":53.1614,"RA_OF_ASC_NODE":80.9862,"ARG_OF_PERICENTER":137.3062,"MEAN_ANOMALY":222.8337,"EPHEMERIS_TYPE":0,"CLASSIFICATION_TYPE":"U","NORAD_CAT_ID":68041,"ELEMENT_SET_NO":999,"REV_AT_EPOCH":63,"BSTAR":0.00027845147,"MEAN_MOTION_DOT":0.00164225,"MEAN_MOTION_DDOT":2.2869145e-5},{"OBJECT_NAME":"STARLINK-36925","OBJECT_ID":"2026-041C","EPOCH":"2026-03-05T22:02:02.507712","MEAN_MOTION":16.02483339,"ECCENTRICITY":0.00010739,"INCLINATION":53.1611,"RA_OF_ASC_NODE":81.6321,"ARG_OF_PERICENTER":5.108,"MEAN_ANOMALY":354.9963,"EPHEMERIS_TYPE":0,"CLASSIFICATION_TYPE":"U","NORAD_CAT_ID":68042,"ELEMENT_SET_NO":999,"REV_AT_EPOCH":61,"BSTAR":-0.00063170678,"MEAN_MOTION_DOT":-0.0038751,"MEAN_MOTION_DDOT":6.5414542e-5},{"OBJECT_NAME":"STARLINK-36902","OBJECT_ID":"2026-041D","EPOCH":"2026-03-06T01:01:20.150112","MEAN_MOTION":16.02476877,"ECCENTRICITY":0.00044181,"INCLINATION":53.1613,"RA_OF_ASC_NODE":80.9854,"ARG_OF_PERICENTER":132.2054,"MEAN_ANOMALY":227.9354,"EPHEMERIS_TYPE":0,"CLASSIFICATION_TYPE":"U","NORAD_CAT_ID":68043,"ELEMENT_SET_NO":999,"REV_AT_EPOCH":63,"BSTAR":-0.00022338494,"MEAN_MOTION_DOT":-0.00139554,"MEAN_MOTION_DDOT":1.8460905e-5},{"OBJECT_NAME":"STARLINK-36966","OBJECT_ID":"2026-041E","EPOCH":"2026-03-05T20:31:31.899648","MEAN_MOTION":16.03609466,"ECCENTRICITY":0.00035364,"INCLINATION":53.1609,"RA_OF_ASC_NODE":81.9515,"ARG_OF_PERICENTER":207.654,"MEAN_ANOMALY":152.4305,"EPHEMERIS_TYPE":0,"CLASSIFICATION_TYPE":"U","NORAD_CAT_ID":68044,"ELEMENT_SET_NO":999,"REV_AT_EPOCH":60,"BSTAR":0.001411359,"MEAN_MOTION_DOT":0.00908973,"MEAN_MOTION_DDOT":0.00042950555},{"OBJECT_NAME":"STARLINK-36864","OBJECT_ID":"2026-041F","EPOCH":"2026-03-06T01:01:07.209984","MEAN_MOTION":16.02522584,"ECCENTRICITY":0.00018576,"INCLINATION":53.1608,"RA_OF_ASC_NODE":80.9848,"ARG_OF_PERICENTER":135.3042,"MEAN_ANOMALY":224.814,"EPHEMERIS_TYPE":0,"CLASSIFICATION_TYPE":"U","NORAD_CAT_ID":68045,"ELEMENT_SET_NO":999,"REV_AT_EPOCH":63,"BSTAR":-0.00058722856,"MEAN_MOTION_DOT":-0.00361398,"MEAN_MOTION_DDOT":5.8561658e-5},{"OBJECT_NAME":"STARLINK-36321","OBJECT_ID":"2026-041G","EPOCH":"2026-03-06T01:00:31.347072","MEAN_MOTION":16.0305757,"ECCENTRICITY":3.938e-5,"INCLINATION":53.1607,"RA_OF_ASC_NODE":80.9818,"ARG_OF_PERICENTER":123.5853,"MEAN_ANOMALY":236.5217,"EPHEMERIS_TYPE":0,"CLASSIFICATION_TYPE":"U","NORAD_CAT_ID":68046,"ELEMENT_SET_NO":999,"REV_AT_EPOCH":63,"BSTAR":6.3654936e-5,"MEAN_MOTION_DOT":0.00036466,"MEAN_MOTION_DDOT":1.200713e-5},{"OBJECT_NAME":"STARLINK-36181","OBJECT_ID":"2026-041H","EPOCH":"2026-03-05T22:01:08.112864","MEAN_MOTION":16.03005981,"ECCENTRICITY":0.00025048,"INCLINATION":53.1613,"RA_OF_ASC_NODE":81.628,"ARG_OF_PERICENTER":341.9342,"MEAN_ANOMALY":18.1601,"EPHEMERIS_TYPE":0,"CLASSIFICATION_TYPE":"U","NORAD_CAT_ID":68047,"ELEMENT_SET_NO":999,"REV_AT_EPOCH":61,"BSTAR":-0.00055577852,"MEAN_MOTION_DOT":-0.00352182,"MEAN_MOTION_DDOT":5.6519344e-5},{"OBJECT_NAME":"STARLINK-36318","OBJECT_ID":"2026-041J","EPOCH":"2026-03-05T20:30:58.980384","MEAN_MOTION":16.03695095,"ECCENTRICITY":0.00019306,"INCLINATION":53.1609,"RA_OF_ASC_NODE":81.949,"ARG_OF_PERICENTER":216.4713,"MEAN_ANOMALY":143.6188,"EPHEMERIS_TYPE":0,"CLASSIFICATION_TYPE":"U","NORAD_CAT_ID":68048,"ELEMENT_SET_NO":999,"REV_AT_EPOCH":60,"BSTAR":0.00058630161,"MEAN_MOTION_DOT":0.0037944,"MEAN_MOTION_DDOT":7.5728556e-5},{"OBJECT_NAME":"STARLINK-36885","OBJECT_ID":"2026-041K","EPOCH":"2026-03-06T00:59:54.939840","MEAN_MOTION":16.03284822,"ECCENTRICITY":0.00011213,"INCLINATION":53.1606,"RA_OF_ASC_NODE":80.9788,"ARG_OF_PERICENTER":111.7318,"MEAN_ANOMALY":248.3834,"EPHEMERIS_TYPE":0,"CLASSIFICATION_TYPE":"U","NORAD_CAT_ID":68049,"ELEMENT_SET_NO":999,"REV_AT_EPOCH":63,"BSTAR":-0.00041587733,"MEAN_MOTION_DOT":-0.00268809,"MEAN_MOTION_DDOT":3.8022398e-5},{"OBJECT_NAME":"STARLINK-36945","OBJECT_ID":"2026-041L","EPOCH":"2026-03-06T01:00:07.797888","MEAN_MOTION":16.03140488,"ECCENTRICITY":7.477e-5,"INCLINATION":53.1607,"RA_OF_ASC_NODE":80.9796,"ARG_OF_PERICENTER":123.3618,"MEAN_ANOMALY":236.7486,"EPHEMERIS_TYPE":0,"CLASSIFICATION_TYPE":"U","NORAD_CAT_ID":68050,"ELEMENT_SET_NO":999,"REV_AT_EPOCH":63,"BSTAR":-0.00045942945,"MEAN_MOTION_DOT":-0.00294029,"MEAN_MOTION_DDOT":4.3115782e-5},{"OBJECT_NAME":"STARLINK-35911","OBJECT_ID":"2026-041M","EPOCH":"2026-03-06T00:59:41.609184","MEAN_MOTION":16.03403245,"ECCENTRICITY":7.758e-5,"INCLINATION":53.1606,"RA_OF_ASC_NODE":80.9777,"ARG_OF_PERICENTER":102.2522,"MEAN_ANOMALY":257.8597,"EPHEMERIS_TYPE":0,"CLASSIFICATION_TYPE":"U","NORAD_CAT_ID":68051,"ELEMENT_SET_NO":999,"REV_AT_EPOCH":63,"BSTAR":-0.00045294916,"MEAN_MOTION_DOT":-0.00294472,"MEAN_MOTION_DDOT":4.3323052e-5},{"OBJECT_NAME":"STARLINK-35808","OBJECT_ID":"2026-041N","EPOCH":"2026-03-06T00:59:29.614272","MEAN_MOTION":16.03503394,"ECCENTRICITY":0.00017528,"INCLINATION":53.1608,"RA_OF_ASC_NODE":80.9771,"ARG_OF_PERICENTER":134.1273,"MEAN_ANOMALY":225.9904,"EPHEMERIS_TYPE":0,"CLASSIFICATION_TYPE":"U","NORAD_CAT_ID":68052,"ELEMENT_SET_NO":999,"REV_AT_EPOCH":63,"BSTAR":-0.0004801718,"MEAN_MOTION_DOT":-0.00313842,"MEAN_MOTION_DDOT":4.7633571e-5},{"OBJECT_NAME":"STARLINK-36919","OBJECT_ID":"2026-041P","EPOCH":"2026-03-06T00:59:16.691424","MEAN_MOTION":16.03627286,"ECCENTRICITY":0.0001531,"INCLINATION":53.1609,"RA_OF_ASC_NODE":80.976,"ARG_OF_PERICENTER":134.277,"MEAN_ANOMALY":225.8388,"EPHEMERIS_TYPE":0,"CLASSIFICATION_TYPE":"U","NORAD_CAT_ID":68053,"ELEMENT_SET_NO":999,"REV_AT_EPOCH":63,"BSTAR":-0.00043492457,"MEAN_MOTION_DOT":-0.00286719,"MEAN_MOTION_DDOT":4.1779914e-5},{"OBJECT_NAME":"STARLINK-36924","OBJECT_ID":"2026-041Q","EPOCH":"2026-03-05T21:59:23.618976","MEAN_MOTION":16.04306352,"ECCENTRICITY":0.00039813,"INCLINATION":53.1613,"RA_OF_ASC_NODE":81.6202,"ARG_OF_PERICENTER":185.7535,"MEAN_ANOMALY":174.3453,"EPHEMERIS_TYPE":0,"CLASSIFICATION_TYPE":"U","NORAD_CAT_ID":68054,"ELEMENT_SET_NO":999,"REV_AT_EPOCH":61,"BSTAR":0.00019704536,"MEAN_MOTION_DOT":0.00130205,"MEAN_MOTION_DDOT":1.8871136e-5},{"OBJECT_NAME":"STARLINK-35998","OBJECT_ID":"2026-041R","EPOCH":"2026-03-06T00:59:05.484480","MEAN_MOTION":16.03749796,"ECCENTRICITY":8.925e-5,"INCLINATION":53.1607,"RA_OF_ASC_NODE":80.9748,"ARG_OF_PERICENTER":123.1638,"MEAN_ANOMALY":236.9481,"EPHEMERIS_TYPE":0,"CLASSIFICATION_TYPE":"U","NORAD_CAT_ID":68055,"ELEMENT_SET_NO":999,"REV_AT_EPOCH":63,"BSTAR":-0.00044522906,"MEAN_MOTION_DOT":-0.00295535,"MEAN_MOTION_DDOT":4.3701815e-5},{"OBJECT_NAME":"STARLINK-36845","OBJECT_ID":"2026-041S","EPOCH":"2026-03-05T23:28:57.295488","MEAN_MOTION":16.04013847,"ECCENTRICITY":0.00034266,"INCLINATION":53.1613,"RA_OF_ASC_NODE":81.2963,"ARG_OF_PERICENTER":344.2338,"MEAN_ANOMALY":15.8587,"EPHEMERIS_TYPE":0,"CLASSIFICATION_TYPE":"U","NORAD_CAT_ID":68056,"ELEMENT_SET_NO":999,"REV_AT_EPOCH":62,"BSTAR":-0.00045641803,"MEAN_MOTION_DOT":-0.00307885,"MEAN_MOTION_DDOT":4.6532979e-5},{"OBJECT_NAME":"STARLINK-36954","OBJECT_ID":"2026-041T","EPOCH":"2026-03-05T23:28:46.424640","MEAN_MOTION":16.04134131,"ECCENTRICITY":0.00041292,"INCLINATION":53.1613,"RA_OF_ASC_NODE":81.2955,"ARG_OF_PERICENTER":349.7622,"MEAN_ANOMALY":10.3326,"EPHEMERIS_TYPE":0,"CLASSIFICATION_TYPE":"U","NORAD_CAT_ID":68057,"ELEMENT_SET_NO":999,"REV_AT_EPOCH":62,"BSTAR":-0.00050559879,"MEAN_MOTION_DOT":-0.00343211,"MEAN_MOTION_DDOT":5.4941963e-5},{"OBJECT_NAME":"STARLINK-36899","OBJECT_ID":"2026-041U","EPOCH":"2026-03-06T00:58:18.934752","MEAN_MOTION":16.04255728,"ECCENTRICITY":0.000425,"INCLINATION":53.161,"RA_OF_ASC_NODE":80.9714,"ARG_OF_PERICENTER":347.8885,"MEAN_ANOMALY":12.2045,"EPHEMERIS_TYPE":0,"CLASSIFICATION_TYPE":"U","NORAD_CAT_ID":68058,"ELEMENT_SET_NO":999,"REV_AT_EPOCH":63,"BSTAR":0.00012232536,"MEAN_MOTION_DOT":0.00079229,"MEAN_MOTION_DDOT":1.4223698e-5},{"OBJECT_NAME":"STARLINK-36917","OBJECT_ID":"2026-041V","EPOCH":"2026-03-05T23:28:23.195136","MEAN_MOTION":16.04399058,"ECCENTRICITY":0.0003337,"INCLINATION":53.1613,"RA_OF_ASC_NODE":81.294,"ARG_OF_PERICENTER":352.4066,"MEAN_ANOMALY":7.6916,"EPHEMERIS_TYPE":0,"CLASSIFICATION_TYPE":"U","NORAD_CAT_ID":68059,"ELEMENT_SET_NO":999,"REV_AT_EPOCH":62,"BSTAR":-0.00044575118,"MEAN_MOTION_DOT":-0.00307785,"MEAN_MOTION_DDOT":4.6695067e-5}]
